[{
        "name": "Ø§ÙØºØ§Ù†ÙŠØ³ØªØ§Ù†",
        "flag": "ğŸ‡¦ğŸ‡«",
        "code": "AF",
        "dial_code": "+93"
    },
    {
        "name": "Ø¬Ø²Ø± Ø¢Ù„Ø§Ù†Ø¯",
        "flag": "ğŸ‡¦ğŸ‡½",
        "code": "AX",
        "dial_code": "+358"
    },
    {
        "name": "Ø£Ù„Ø¨Ø§Ù†ÙŠØ§",
        "flag": "ğŸ‡¦ğŸ‡±",
        "code": "AL",
        "dial_code": "+355"
    },
    {
        "name": "Ø§Ù„Ø¬Ø²Ø§Ø¦Ø±",
        "flag": "ğŸ‡©ğŸ‡¿",
        "code": "DZ",
        "dial_code": "+213"
    },
    {
        "name": "Ø³Ø§Ù…ÙˆØ§ Ø§Ù„Ø£Ù…Ø±ÙŠÙƒÙŠØ©",
        "flag": "ğŸ‡¦ğŸ‡¸",
        "code": "AS",
        "dial_code": "+1684"
    },
    {
        "name": "Ø£Ù†Ø¯ÙˆØ±Ø§",
        "flag": "ğŸ‡¦ğŸ‡©",
        "code": "AD",
        "dial_code": "+376"
    },
    {
        "name": "Ø£Ù†ØºÙˆÙ„Ø§",
        "flag": "ğŸ‡¦ğŸ‡´",
        "code": "AO",
        "dial_code": "+244"
    },
    {
        "name": "Ø£Ù†ØºÙŠÙ„Ø§",
        "flag": "ğŸ‡¦ğŸ‡®",
        "code": "AI",
        "dial_code": "+1264"
    },
    {
        "name": "Ø§Ù„Ù‚Ø§Ø±Ø© Ø§Ù„Ù‚Ø·Ø¨ÙŠØ© Ø§Ù„Ø¬Ù†ÙˆØ¨ÙŠØ©",
        "flag": "ğŸ‡¦ğŸ‡¶",
        "code": "AQ",
        "dial_code": "+672"
    },
    {
        "name": "Ø£Ù†ØªÙŠØºÙˆØ§ ÙˆØ¨Ø±Ø¨ÙˆØ¯Ø§",
        "flag": "ğŸ‡¦ğŸ‡¬",
        "code": "AG",
        "dial_code": "+1268"
    },
    {
        "name": "Ø§Ù„Ø£Ø±Ø¬Ù†ØªÙŠÙ†",
        "flag": "ğŸ‡¦ğŸ‡·",
        "code": "AR",
        "dial_code": "+54"
    },
    {
        "name": "Ø£Ø±Ù…ÙŠÙ†ÙŠØ§",
        "flag": "ğŸ‡¦ğŸ‡²",
        "code": "AM",
        "dial_code": "+374"
    },
    {
        "name": "Ø£Ø±ÙˆØ¨Ø§",
        "flag": "ğŸ‡¦ğŸ‡¼",
        "code": "AW",
        "dial_code": "+297"
    },
    {
        "name": "Ø£Ø³ØªØ±Ø§Ù„ÙŠØ§",
        "flag": "ğŸ‡¦ğŸ‡º",
        "code": "AU",
        "dial_code": "+61"
    },
    {
        "name": "Ø§Ù„Ù†Ù…Ø³Ø§",
        "flag": "ğŸ‡¦ğŸ‡¹",
        "code": "AT",
        "dial_code": "+43"
    },
    {
        "name": "Ø£Ø°Ø±Ø¨ÙŠØ¬Ø§Ù†",
        "flag": "ğŸ‡¦ğŸ‡¿",
        "code": "AZ",
        "dial_code": "+994"
    },
    {
        "name": "Ø¬Ø²Ø± Ø§Ù„Ø¨Ù‡Ø§Ù…Ø§",
        "flag": "ğŸ‡§ğŸ‡¸",
        "code": "BS",
        "dial_code": "+1242"
    },
    {
        "name": "Ø§Ù„Ø¨Ø­Ø±ÙŠÙ†",
        "flag": "ğŸ‡§ğŸ‡­",
        "code": "BH",
        "dial_code": "+973"
    },
    {
        "name": "Ø¨Ù†ØºÙ„Ø§Ø¯ÙŠØ´",
        "flag": "ğŸ‡§ğŸ‡©",
        "code": "BD",
        "dial_code": "+880"
    },
    {
        "name": "Ø¨Ø±Ø¨Ø§Ø¯ÙˆØ³",
        "flag": "ğŸ‡§ğŸ‡§",
        "code": "BB",
        "dial_code": "+1246"
    },
    {
        "name": "Ø¨ÙŠÙ„Ø§Ø±ÙˆØ³ÙŠØ§",
        "flag": "ğŸ‡§ğŸ‡¾",
        "code": "BY",
        "dial_code": "+375"
    },
    {
        "name": "Ø¨Ù„Ø¬ÙŠÙƒØ§",
        "flag": "ğŸ‡§ğŸ‡ª",
        "code": "BE",
        "dial_code": "+32"
    },
    {
        "name": "Ø¨Ù„ÙŠØ²",
        "flag": "ğŸ‡§ğŸ‡¿",
        "code": "BZ",
        "dial_code": "+501"
    },
    {
        "name": "Ø¨Ù†ÙŠÙ†",
        "flag": "ğŸ‡§ğŸ‡¯",
        "code": "BJ",
        "dial_code": "+229"
    },
    {
        "name": "Ø¨Ø±Ù…ÙˆØ¯Ø§",
        "flag": "ğŸ‡§ğŸ‡²",
        "code": "BM",
        "dial_code": "+1441"
    },
    {
        "name": "Ø¨ÙˆØªØ§Ù†",
        "flag": "ğŸ‡§ğŸ‡¹",
        "code": "BT",
        "dial_code": "+975"
    },
    {
        "name": "Ø¨ÙˆÙ„ÙŠÙÙŠØ§ ØŒ Ø¯ÙˆÙ„Ø© Ø¨ÙˆÙ„ÙŠÙÙŠØ§ Ø§Ù„Ù…ØªØ¹Ø¯Ø¯Ø© Ø§Ù„Ù‚ÙˆÙ…ÙŠØ§Øª",
        "flag": "ğŸ‡§ğŸ‡´",
        "code": "BO",
        "dial_code": "+591"
    },
    {
        "name": "Ø§Ù„Ø¨ÙˆØ³Ù†Ø© ÙˆØ§Ù„Ù‡Ø±Ø³Ùƒ",
        "flag": "ğŸ‡§ğŸ‡¦",
        "code": "BA",
        "dial_code": "+387"
    },
    {
        "name": "Ø¨ÙˆØªØ³ÙˆØ§Ù†Ø§",
        "flag": "ğŸ‡§ğŸ‡¼",
        "code": "BW",
        "dial_code": "+267"
    },
    {
        "name": "Ø¬Ø²ÙŠØ±Ø© Ø¨ÙˆÙÙŠØª",
        "flag": "ğŸ‡§ğŸ‡»",
        "code": "BV",
        "dial_code": "+47"
    },
    {
        "name": "Ø§Ù„Ø¨Ø±Ø§Ø²ÙŠÙ„",
        "flag": "ğŸ‡§ğŸ‡·",
        "code": "BR",
        "dial_code": "+55"
    },
    {
        "name": "Ø¥Ù‚Ù„ÙŠÙ… Ø§Ù„Ù…Ø­ÙŠØ· Ø§Ù„Ø¨Ø±ÙŠØ·Ø§Ù†ÙŠ Ø§Ù„Ù‡Ù†Ø¯ÙŠ",
        "flag": "ğŸ‡®ğŸ‡´",
        "code": "IO",
        "dial_code": "+246"
    },
    {
        "name": "Ø¨Ø±ÙˆÙ†Ø§ÙŠ Ø¯Ø§Ø± Ø§Ù„Ø³Ù„Ø§Ù…",
        "flag": "ğŸ‡§ğŸ‡³",
        "code": "BN",
        "dial_code": "+673"
    },
    {
        "name": "Ø¨Ù„ØºØ§Ø±ÙŠØ§",
        "flag": "ğŸ‡§ğŸ‡¬",
        "code": "BG",
        "dial_code": "+359"
    },
    {
        "name": "Ø¨ÙˆØ±ÙƒÙŠÙ†Ø§ ÙØ§Ø³Ùˆ",
        "flag": "ğŸ‡§ğŸ‡«",
        "code": "BF",
        "dial_code": "+226"
    },
    {
        "name": "Ø¨ÙˆØ±ÙˆÙ†Ø¯ÙŠ",
        "flag": "ğŸ‡§ğŸ‡®",
        "code": "BI",
        "dial_code": "+257"
    },
    {
        "name": "ÙƒÙ…Ø¨ÙˆØ¯ÙŠØ§",
        "flag": "ğŸ‡°ğŸ‡­",
        "code": "KH",
        "dial_code": "+855"
    },
    {
        "name": "Ø§Ù„ÙƒØ§Ù…ÙŠØ±ÙˆÙ†",
        "flag": "ğŸ‡¨ğŸ‡²",
        "code": "CM",
        "dial_code": "+237"
    },
    {
        "name": "ÙƒÙ†Ø¯Ø§",
        "flag": "ğŸ‡¨ğŸ‡¦",
        "code": "CA",
        "dial_code": "+1"
    },
    {
        "name": "Ø§Ù„Ø±Ø£Ø³ Ø§Ù„Ø£Ø®Ø¶Ø±",
        "flag": "ğŸ‡¨ğŸ‡»",
        "code": "CV",
        "dial_code": "+238"
    },
    {
        "name": "Ø¬Ø²Ø± ÙƒØ§ÙŠÙ…Ø§Ù†",
        "flag": "ğŸ‡°ğŸ‡¾",
        "code": "KY",
        "dial_code": "+345"
    },
    {
        "name": "Ø¬Ù…Ù‡ÙˆØ±ÙŠØ© Ø§ÙØ±ÙŠÙ‚ÙŠØ§ Ø§Ù„ÙˆØ³Ø·Ù‰",
        "flag": "ğŸ‡¨ğŸ‡«",
        "code": "CF",
        "dial_code": "+236"
    },
    {
        "name": "ØªØ´Ø§Ø¯",
        "flag": "ğŸ‡¹ğŸ‡©",
        "code": "TD",
        "dial_code": "+235"
    },
    {
        "name": "ØªØ´ÙŠÙ„ÙŠ",
        "flag": "ğŸ‡¨ğŸ‡±",
        "code": "CL",
        "dial_code": "+56"
    },
    {
        "name": "Ø§Ù„ØµÙŠÙ†",
        "flag": "ğŸ‡¨ğŸ‡³",
        "code": "CN",
        "dial_code": "+86"
    },
    {
        "name": "Ø¬Ø²ÙŠØ±Ø© Ø§Ù„ÙƒØ±ÙŠØ³Ù…Ø§Ø³",
        "flag": "ğŸ‡¨ğŸ‡½",
        "code": "CX",
        "dial_code": "+61"
    },
    {
        "name": "Ø¬Ø²Ø± ÙƒÙˆÙƒÙˆØ³ (ÙƒÙŠÙ„ÙŠÙ†Øº)",
        "flag": "ğŸ‡¨ğŸ‡¨",
        "code": "CC",
        "dial_code": "+61"
    },
    {
        "name": "ÙƒÙˆÙ„ÙˆÙ…Ø¨ÙŠØ§",
        "flag": "ğŸ‡¨ğŸ‡´",
        "code": "CO",
        "dial_code": "+57"
    },
    {
        "name": "Ø¬Ø²Ø± Ø§Ù„Ù‚Ù…Ø±",
        "flag": "ğŸ‡°ğŸ‡²",
        "code": "KM",
        "dial_code": "+269"
    },
    {
        "name": "Ø§Ù„ÙƒÙˆÙ†ØºÙˆ",
        "flag": "ğŸ‡¨ğŸ‡¬",
        "code": "CG",
        "dial_code": "+242"
    },
    {
        "name": "Ø§Ù„ÙƒÙˆÙ†ØºÙˆ ØŒ Ø¬Ù…Ù‡ÙˆØ±ÙŠØ© Ø§Ù„ÙƒÙˆÙ†ØºÙˆ Ø§Ù„Ø¯ÙŠÙ…Ù‚Ø±Ø§Ø·ÙŠØ©",
        "flag": "ğŸ‡¨ğŸ‡©",
        "code": "CD",
        "dial_code": "+243"
    },
    {
        "name": "Ø¬Ø²Ø± ÙƒÙˆÙƒ",
        "flag": "ğŸ‡¨ğŸ‡°",
        "code": "CK",
        "dial_code": "+682"
    },
    {
        "name": "ÙƒÙˆØ³ØªØ§ Ø±ÙŠÙƒØ§",
        "flag": "ğŸ‡¨ğŸ‡·",
        "code": "CR",
        "dial_code": "+506"
    },
    {
        "name": "ÙƒÙˆØª Ø¯ÙŠÙÙˆØ§Ø±",
        "flag": "ğŸ‡¨ğŸ‡®",
        "code": "CI",
        "dial_code": "+225"
    },
    {
        "name": "ÙƒØ±ÙˆØ§ØªÙŠØ§",
        "flag": "ğŸ‡­ğŸ‡·",
        "code": "HR",
        "dial_code": "+385"
    },
    {
        "name": "ÙƒÙˆØ¨Ø§",
        "flag": "ğŸ‡¨ğŸ‡º",
        "code": "CU",
        "dial_code": "+53"
    },
    {
        "name": "Ù‚Ø¨Ø±Øµ",
        "flag": "ğŸ‡¨ğŸ‡¾",
        "code": "CY",
        "dial_code": "+357"
    },
    {
        "name": "Ø¬Ù…Ù‡ÙˆØ±ÙŠØ© Ø§Ù„ØªØ´ÙŠÙƒ",
        "flag": "ğŸ‡¨ğŸ‡¿",
        "code": "CZ",
        "dial_code": "+420"
    },
    {
        "name": "Ø§Ù„Ø¯Ù†Ù…Ø§Ø±Ùƒ",
        "flag": "ğŸ‡©ğŸ‡°",
        "code": "DK",
        "dial_code": "+45"
    },
    {
        "name": "Ø¬ÙŠØ¨ÙˆØªÙŠ",
        "flag": "ğŸ‡©ğŸ‡¯",
        "code": "DJ",
        "dial_code": "+253"
    },
    {
        "name": "Ø¯ÙˆÙ…ÙŠÙ†ÙŠÙƒØ§",
        "flag": "ğŸ‡©ğŸ‡²",
        "code": "DM",
        "dial_code": "+1767"
    },
    {
        "name": "Ø¬Ù…Ù‡ÙˆØ±ÙŠØ© Ø§Ù„Ø¯ÙˆÙ…Ù†ÙŠÙƒØ§Ù†",
        "flag": "ğŸ‡©ğŸ‡´",
        "code": "DO",
        "dial_code": "+1849"
    },
    {
        "name": "Ø§Ù„Ø§ÙƒÙˆØ§Ø¯ÙˆØ±",
        "flag": "ğŸ‡ªğŸ‡¨",
        "code": "EC",
        "dial_code": "+593"
    },
    {
        "name": "Ù…ØµØ±",
        "flag": "ğŸ‡ªğŸ‡¬",
        "code": "EG",
        "dial_code": "+20"
    },
    {
        "name": "Ø§Ù„Ø³Ù„ÙØ§Ø¯ÙˆØ±",
        "flag": "ğŸ‡¸ğŸ‡»",
        "code": "SV",
        "dial_code": "+503"
    },
    {
        "name": "ØºÙŠÙ†ÙŠØ§ Ø§Ù„Ø¥Ø³ØªÙˆØ§Ø¦ÙŠØ©",
        "flag": "ğŸ‡¬ğŸ‡¶",
        "code": "GQ",
        "dial_code": "+240"
    },
    {
        "name": "Ø¥Ø±ÙŠØªØ±ÙŠØ§",
        "flag": "ğŸ‡ªğŸ‡·",
        "code": "ER",
        "dial_code": "+291"
    },
    {
        "name": "Ø¥Ø³ØªÙˆÙ†ÙŠØ§",
        "flag": "ğŸ‡ªğŸ‡ª",
        "code": "EE",
        "dial_code": "+372"
    },
    {
        "name": "Ø£Ø«ÙŠÙˆØ¨ÙŠØ§",
        "flag": "ğŸ‡ªğŸ‡¹",
        "code": "ET",
        "dial_code": "+251"
    },
    {
        "name": "Ø¬Ø²Ø± ÙÙˆÙƒÙ„Ø§Ù†Ø¯ (Ù…Ø§Ù„ÙÙŠÙ†Ø§Ø³)",
        "flag": "ğŸ‡«ğŸ‡°",
        "code": "FK",
        "dial_code": "+500"
    },
    {
        "name": "Ø¬Ø²Ø± ÙØ§Ø±ÙˆØ³",
        "flag": "ğŸ‡«ğŸ‡´",
        "code": "FO",
        "dial_code": "+298"
    },
    {
        "name": "ÙÙŠØ¬ÙŠ",
        "flag": "ğŸ‡«ğŸ‡¯",
        "code": "FJ",
        "dial_code": "+679"
    },
    {
        "name": "ÙÙ†Ù„Ù†Ø¯Ø§",
        "flag": "ğŸ‡«ğŸ‡®",
        "code": "FI",
        "dial_code": "+358"
    },
    {
        "name": "ÙØ±Ù†Ø³Ø§",
        "flag": "ğŸ‡«ğŸ‡·",
        "code": "FR",
        "dial_code": "+33"
    },
    {
        "name": "ØºÙŠØ§Ù†Ø§ Ø§Ù„ÙØ±Ù†Ø³ÙŠØ©",
        "flag": "ğŸ‡¬ğŸ‡«",
        "code": "GF",
        "dial_code": "+594"
    },
    {
        "name": "Ø¨ÙˆÙ„ÙŠÙ†ÙŠØ²ÙŠØ§ Ø§Ù„ÙØ±Ù†Ø³ÙŠØ©",
        "flag": "ğŸ‡µğŸ‡«",
        "code": "PF",
        "dial_code": "+689"
    },
    {
        "name": "Ø§Ù„Ù…Ù†Ø§Ø·Ù‚ Ø§Ù„Ø¬Ù†ÙˆØ¨ÙŠØ© Ù„ÙØ±Ù†Ø³Ø§",
        "flag": "ğŸ‡¹ğŸ‡«",
        "code": "TF",
        "dial_code": "+262"
    },
    {
        "name": "Ø§Ù„Ø¬Ø§Ø¨ÙˆÙ†",
        "flag": "ğŸ‡¬ğŸ‡¦",
        "code": "GA",
        "dial_code": "+241"
    },
    {
        "name": "ØºØ§Ù…Ø¨ÙŠØ§",
        "flag": "ğŸ‡¬ğŸ‡²",
        "code": "GM",
        "dial_code": "+220"
    },
    {
        "name": "Ø¬ÙˆØ±Ø¬ÙŠØ§",
        "flag": "ğŸ‡¬ğŸ‡ª",
        "code": "GE",
        "dial_code": "+995"
    },
    {
        "name": "Ø£Ù„Ù…Ø§Ù†ÙŠØ§",
        "flag": "ğŸ‡©ğŸ‡ª",
        "code": "DE",
        "dial_code": "+49"
    },
    {
        "name": "ØºØ§Ù†Ø§",
        "flag": "ğŸ‡¬ğŸ‡­",
        "code": "GH",
        "dial_code": "+233"
    },
    {
        "name": "Ø¬Ø¨Ù„ Ø·Ø§Ø±Ù‚",
        "flag": "ğŸ‡¬ğŸ‡®",
        "code": "GI",
        "dial_code": "+350"
    },
    {
        "name": "Ø§Ù„ÙŠÙˆÙ†Ø§Ù†",
        "flag": "ğŸ‡¬ğŸ‡·",
        "code": "GR",
        "dial_code": "+30"
    },
    {
        "name": "Ø§Ù„Ø£Ø±Ø¶ Ø§Ù„Ø®Ø¶Ø±Ø§Ø¡",
        "flag": "ğŸ‡¬ğŸ‡±",
        "code": "GL",
        "dial_code": "+299"
    },
    {
        "name": "ØºØ±ÙŠÙ†Ø§Ø¯Ø§",
        "flag": "ğŸ‡¬ğŸ‡©",
        "code": "GD",
        "dial_code": "+1473"
    },
    {
        "name": "Ø¬ÙˆØ§Ø¯Ù„ÙˆØ¨",
        "flag": "ğŸ‡¬ğŸ‡µ",
        "code": "GP",
        "dial_code": "+590"
    },
    {
        "name": "ØºÙˆØ§Ù…",
        "flag": "ğŸ‡¬ğŸ‡º",
        "code": "GU",
        "dial_code": "+1671"
    },
    {
        "name": "ØºÙˆØ§ØªÙŠÙ…Ø§Ù„Ø§",
        "flag": "ğŸ‡¬ğŸ‡¹",
        "code": "GT",
        "dial_code": "+502"
    },
    {
        "name": "ØºÙŠØ±Ù†Ø³ÙŠ",
        "flag": "ğŸ‡¬ğŸ‡¬",
        "code": "GG",
        "dial_code": "+44"
    },
    {
        "name": "ØºÙŠÙ†ÙŠØ§",
        "flag": "ğŸ‡¬ğŸ‡³",
        "code": "GN",
        "dial_code": "+224"
    },
    {
        "name": "ØºÙŠÙ†ÙŠØ§ Ø¨ÙŠØ³Ø§Ùˆ",
        "flag": "ğŸ‡¬ğŸ‡¼",
        "code": "GW",
        "dial_code": "+245"
    },
    {
        "name": "ØºÙŠØ§Ù†Ø§",
        "flag": "ğŸ‡¬ğŸ‡¾",
        "code": "GY",
        "dial_code": "+592"
    },
    {
        "name": "Ù‡Ø§ÙŠØªÙŠ",
        "flag": "ğŸ‡­ğŸ‡¹",
        "code": "HT",
        "dial_code": "+509"
    },
    {
        "name": "Ù‚Ù„Ø¨ Ø§Ù„Ø¬Ø²ÙŠØ±Ø© ÙˆØ¬Ø²Ø± Ù…Ø§ÙƒØ¯ÙˆÙ†Ø§Ù„Ø²",
        "flag": "ğŸ‡­ğŸ‡²",
        "code": "HM",
        "dial_code": "+672"
    },
    {
        "name": "Ø¯ÙˆÙ„Ø© Ø§Ù„ÙØ§ØªÙŠÙƒØ§Ù†",
        "flag": "ğŸ‡»ğŸ‡¦",
        "code": "VA",
        "dial_code": "+379"
    },
    {
        "name": "Ù‡Ù†Ø¯ÙˆØ±Ø§Ø³",
        "flag": "ğŸ‡­ğŸ‡³",
        "code": "HN",
        "dial_code": "+504"
    },
    {
        "name": "Ù‡ÙˆÙ†Ø¬ ÙƒÙˆÙ†Ø¬",
        "flag": "ğŸ‡­ğŸ‡°",
        "code": "HK",
        "dial_code": "+852"
    },
    {
        "name": "Ù‡Ù†ØºØ§Ø±ÙŠØ§",
        "flag": "ğŸ‡­ğŸ‡º",
        "code": "HU",
        "dial_code": "+36"
    },
    {
        "name": "Ø£ÙŠØ³Ù„Ù†Ø¯Ø§",
        "flag": "ğŸ‡®ğŸ‡¸",
        "code": "IS",
        "dial_code": "+354"
    },
    {
        "name": "Ø§Ù„Ù‡Ù†Ø¯",
        "flag": "ğŸ‡®ğŸ‡³",
        "code": "IN",
        "dial_code": "+91"
    },
    {
        "name": "Ø¥Ù†Ø¯ÙˆÙ†ÙŠØ³ÙŠØ§",
        "flag": "ğŸ‡®ğŸ‡©",
        "code": "ID",
        "dial_code": "+62"
    },
    {
        "name": "Ø¥ÙŠØ±Ø§Ù† ØŒ Ø¬Ù…Ù‡ÙˆØ±ÙŠØ© Ø§Ù„Ø®Ù„ÙŠØ¬ Ø§Ù„Ø¥Ø³Ù„Ø§Ù…ÙŠØ©",
        "flag": "ğŸ‡®ğŸ‡·",
        "code": "IR",
        "dial_code": "+98"
    },
    {
        "name": "Ø§Ù„Ø¹Ø±Ø§Ù‚",
        "flag": "ğŸ‡®ğŸ‡¶",
        "code": "IQ",
        "dial_code": "+964"
    },
    {
        "name": "Ø£ÙŠØ±Ù„Ù†Ø¯Ø§",
        "flag": "ğŸ‡®ğŸ‡ª",
        "code": "IE",
        "dial_code": "+353"
    },
    {
        "name": "Ø¬Ø²ÙŠØ±Ø© Ø¢ÙŠÙ„ Ø£ÙˆÙ Ù…Ø§Ù†",
        "flag": "ğŸ‡®ğŸ‡²",
        "code": "IM",
        "dial_code": "+44"
    },
    {
        "name": "Ø¥ÙŠØ·Ø§Ù„ÙŠØ§",
        "flag": "ğŸ‡®ğŸ‡¹",
        "code": "IT",
        "dial_code": "+39"
    },
    {
        "name": "Ø¬Ø§Ù…Ø§ÙŠÙƒØ§",
        "flag": "ğŸ‡¯ğŸ‡²",
        "code": "JM",
        "dial_code": "+1876"
    },
    {
        "name": "Ø§Ù„ÙŠØ§Ø¨Ø§Ù†",
        "flag": "ğŸ‡¯ğŸ‡µ",
        "code": "JP",
        "dial_code": "+81"
    },
    {
        "name": "Ø¬ÙŠØ±Ø³ÙŠ",
        "flag": "ğŸ‡¯ğŸ‡ª",
        "code": "JE",
        "dial_code": "+44"
    },
    {
        "name": "Ø§Ù„Ø£Ø±Ø¯Ù†",
        "flag": "ğŸ‡¯ğŸ‡´",
        "code": "JO",
        "dial_code": "+962"
    },
    {
        "name": "ÙƒØ§Ø²Ø§Ø®Ø³ØªØ§Ù†",
        "flag": "ğŸ‡°ğŸ‡¿",
        "code": "KZ",
        "dial_code": "+7"
    },
    {
        "name": "ÙƒÙŠÙ†ÙŠØ§",
        "flag": "ğŸ‡°ğŸ‡ª",
        "code": "KE",
        "dial_code": "+254"
    },
    {
        "name": "ÙƒÙŠØ±ÙŠØ¨Ø§ØªÙŠ",
        "flag": "ğŸ‡°ğŸ‡®",
        "code": "KI",
        "dial_code": "+686"
    },
    {
        "name": "ÙƒÙˆØ±ÙŠØ§ ØŒ Ø¬Ù…Ù‡ÙˆØ±ÙŠØ© ÙƒÙˆØ±ÙŠØ§ Ø§Ù„Ø´Ø¹Ø¨ÙŠØ© Ø§Ù„Ø¯ÙŠÙ…Ù‚Ø±Ø§Ø·ÙŠØ©",
        "flag": "ğŸ‡°ğŸ‡µ",
        "code": "KP",
        "dial_code": "+850"
    },
    {
        "name": "ÙƒÙˆØ±ÙŠØ§ ØŒ Ø¬Ù…Ù‡ÙˆØ±ÙŠØ© ÙƒÙˆØ±ÙŠØ§ Ø§Ù„Ø¬Ù†ÙˆØ¨ÙŠØ©",
        "flag": "ğŸ‡°ğŸ‡·",
        "code": "KR",
        "dial_code": "+82"
    },
    {
        "name": "ÙƒÙˆØ³ÙˆÙÙˆ",
        "flag": "ğŸ‡½ğŸ‡°",
        "code": "XK",
        "dial_code": "+383"
    },
    {
        "name": "Ø§Ù„ÙƒÙˆÙŠØª",
        "flag": "ğŸ‡°ğŸ‡¼",
        "code": "KW",
        "dial_code": "+965"
    },
    {
        "name": "Ù‚ÙŠØ±ØºÙŠØ²Ø³ØªØ§Ù†",
        "flag": "ğŸ‡°ğŸ‡¬",
        "code": "KG",
        "dial_code": "+996"
    },
    {
        "name": "Ù„Ø§ÙˆØ³",
        "flag": "ğŸ‡±ğŸ‡¦",
        "code": "LA",
        "dial_code": "+856"
    },
    {
        "name": "Ù„Ø§ØªÙÙŠØ§",
        "flag": "ğŸ‡±ğŸ‡»",
        "code": "LV",
        "dial_code": "+371"
    },
    {
        "name": "Ù„Ø¨Ù†Ø§Ù†",
        "flag": "ğŸ‡±ğŸ‡§",
        "code": "LB",
        "dial_code": "+961"
    },
    {
        "name": "Ù„ÙŠØ³ÙˆØªÙˆ",
        "flag": "ğŸ‡±ğŸ‡¸",
        "code": "LS",
        "dial_code": "+266"
    },
    {
        "name": "Ù„ÙŠØ¨ÙŠØ±ÙŠØ§",
        "flag": "ğŸ‡±ğŸ‡·",
        "code": "LR",
        "dial_code": "+231"
    },
    {
        "name": "Ù„ÙŠØ¨ÙŠØ§",
        "flag": "ğŸ‡±ğŸ‡¾",
        "code": "LY",
        "dial_code": "+218"
    },
    {
        "name": "Ù„ÙŠØ®ØªÙ†Ø´ØªØ§ÙŠÙ†",
        "flag": "ğŸ‡±ğŸ‡®",
        "code": "LI",
        "dial_code": "+423"
    },
    {
        "name": "Ù„ÙŠØªÙˆØ§Ù†ÙŠØ§",
        "flag": "ğŸ‡±ğŸ‡¹",
        "code": "LT",
        "dial_code": "+370"
    },
    {
        "name": "Ù„ÙˆÙƒØ³Ù…Ø¨ÙˆØ±Øº",
        "flag": "ğŸ‡±ğŸ‡º",
        "code": "LU",
        "dial_code": "+352"
    },
    {
        "name": "Ù…Ø§ÙƒØ§Ùˆ",
        "flag": "ğŸ‡²ğŸ‡´",
        "code": "MO",
        "dial_code": "+853"
    },
    {
        "name": "Ù…Ù‚Ø¯ÙˆÙ†ÙŠØ§",
        "flag": "ğŸ‡²ğŸ‡°",
        "code": "MK",
        "dial_code": "+389"
    },
    {
        "name": "Ù…Ø¯ØºØ´Ù‚Ø±",
        "flag": "ğŸ‡²ğŸ‡¬",
        "code": "MG",
        "dial_code": "+261"
    },
    {
        "name": "Ù…Ù„Ø§ÙˆÙŠ",
        "flag": "ğŸ‡²ğŸ‡¼",
        "code": "MW",
        "dial_code": "+265"
    },
    {
        "name": "Ù…Ø§Ù„ÙŠØ²ÙŠØ§",
        "flag": "ğŸ‡²ğŸ‡¾",
        "code": "MY",
        "dial_code": "+60"
    },
    {
        "name": "Ø¬Ø²Ø± Ø§Ù„Ù…Ø§Ù„Ø¯ÙŠÙ\n",
        "flag": "ğŸ‡²ğŸ‡»",
        "code": "MV",
        "dial_code": "+960"
    },
    {
        "name": "Ù…Ø§Ù„ÙŠ",
        "flag": "ğŸ‡²ğŸ‡±",
        "code": "ML",
        "dial_code": "+223"
    },
    {
        "name": "Ù…Ø§Ù„Ø·Ø§",
        "flag": "ğŸ‡²ğŸ‡¹",
        "code": "MT",
        "dial_code": "+356"
    },
    {
        "name": "Ø¬Ø²Ø± Ù…Ø§Ø±Ø´Ø§Ù„",
        "flag": "ğŸ‡²ğŸ‡­",
        "code": "MH",
        "dial_code": "+692"
    },
    {
        "name": "Ù…Ø§Ø±ØªÙŠÙ†ÙŠÙƒ\n",
        "flag": "ğŸ‡²ğŸ‡¶",
        "code": "MQ",
        "dial_code": "+596"
    },
    {
        "name": "Ù…ÙˆØ±ÙŠØªØ§Ù†ÙŠØ§",
        "flag": "ğŸ‡²ğŸ‡·",
        "code": "MR",
        "dial_code": "+222"
    },
    {
        "name": "Ù…ÙˆØ±ÙŠØ´ÙŠÙˆØ³",
        "flag": "ğŸ‡²ğŸ‡º",
        "code": "MU",
        "dial_code": "+230"
    },
    {
        "name": "Ù…Ø§ÙŠÙˆØª",
        "flag": "ğŸ‡¾ğŸ‡¹",
        "code": "YT",
        "dial_code": "+262"
    },
    {
        "name": "Ø§Ù„Ù…ÙƒØ³ÙŠÙƒ",
        "flag": "ğŸ‡²ğŸ‡½",
        "code": "MX",
        "dial_code": "+52"
    },
    {
        "name": "Ù…ÙŠÙƒØ±ÙˆÙ†ÙŠØ²ÙŠØ§ ØŒ ÙˆÙ„Ø§ÙŠØ§Øª Ù…ÙŠÙƒØ±ÙˆÙ†ÙŠØ²ÙŠØ§ Ø§Ù„Ù…ÙˆØ­Ø¯Ø©",
        "flag": "ğŸ‡«ğŸ‡²",
        "code": "FM",
        "dial_code": "+691"
    },
    {
        "name": "Ù…ÙˆÙ„Ø¯ÙˆÙØ§",
        "flag": "ğŸ‡²ğŸ‡©",
        "code": "MD",
        "dial_code": "+373"
    },
    {
        "name": "Ù…ÙˆÙ†Ø§ÙƒÙˆ",
        "flag": "ğŸ‡²ğŸ‡¨",
        "code": "MC",
        "dial_code": "+377"
    },
    {
        "name": "Ù…Ù†ØºÙˆÙ„ÙŠØ§",
        "flag": "ğŸ‡²ğŸ‡³",
        "code": "MN",
        "dial_code": "+976"
    },
    {
        "name": "Ø§Ù„Ø¬Ø¨Ù„ Ø§Ù„Ø£Ø³ÙˆØ¯",
        "flag": "ğŸ‡²ğŸ‡ª",
        "code": "ME",
        "dial_code": "+382"
    },
    {
        "name": "Ù…ÙˆÙ†ØªØ³ÙŠØ±Ø§Øª",
        "flag": "ğŸ‡²ğŸ‡¸",
        "code": "MS",
        "dial_code": "+1664"
    },
    {
        "name": "Ø§Ù„Ù…ØºØ±Ø¨",
        "flag": "ğŸ‡²ğŸ‡¦",
        "code": "MA",
        "dial_code": "+212"
    },
    {
        "name": "Ù…ÙˆØ²Ù…Ø¨ÙŠÙ‚",
        "flag": "ğŸ‡²ğŸ‡¿",
        "code": "MZ",
        "dial_code": "+258"
    },
    {
        "name": "Ù…ÙŠØ§Ù†Ù…Ø§Ø±",
        "flag": "ğŸ‡²ğŸ‡²",
        "code": "MM",
        "dial_code": "+95"
    },
    {
        "name": "Ù†Ø§Ù…ÙŠØ¨ÙŠØ§",
        "flag": "ğŸ‡³ğŸ‡¦",
        "code": "NA",
        "dial_code": "+264"
    },
    {
        "name": "Ù†Ø§ÙˆØ±Ùˆ",
        "flag": "ğŸ‡³ğŸ‡·",
        "code": "NR",
        "dial_code": "+674"
    },
    {
        "name": "Ù†ÙŠØ¨Ø§Ù„",
        "flag": "ğŸ‡³ğŸ‡µ",
        "code": "NP",
        "dial_code": "+977"
    },
    {
        "name": "Ù‡ÙˆÙ„Ù†Ø¯Ø§",
        "flag": "ğŸ‡³ğŸ‡±",
        "code": "NL",
        "dial_code": "+31"
    },
    {
        "name": "Ø¬Ø²Ø± Ø§Ù„Ø£Ù†ØªÙŠÙ„ Ø§Ù„Ù‡ÙˆÙ„Ù†Ø¯ÙŠØ©",
        "flag": "",
        "code": "AN",
        "dial_code": "+599"
    },
    {
        "name": "ÙƒØ§Ù„ÙŠØ¯ÙˆÙ†ÙŠØ§ Ø§Ù„Ø¬Ø¯ÙŠØ¯Ø©",
        "flag": "ğŸ‡³ğŸ‡¨",
        "code": "NC",
        "dial_code": "+687"
    },
    {
        "name": "Ù†ÙŠÙˆØ²ÙŠÙ„Ø§Ù†Ø¯Ø§",
        "flag": "ğŸ‡³ğŸ‡¿",
        "code": "NZ",
        "dial_code": "+64"
    },
    {
        "name": "Ù†ÙŠÙƒØ§Ø±Ø§ØºÙˆØ§",
        "flag": "ğŸ‡³ğŸ‡®",
        "code": "NI",
        "dial_code": "+505"
    },
    {
        "name": "Ø§Ù„Ù†ÙŠØ¬Ø±",
        "flag": "ğŸ‡³ğŸ‡ª",
        "code": "NE",
        "dial_code": "+227"
    },
    {
        "name": "Ù†ÙŠØ¬ÙŠØ±ÙŠØ§",
        "flag": "ğŸ‡³ğŸ‡¬",
        "code": "NG",
        "dial_code": "+234"
    },
    {
        "name": "Ù†ÙŠÙˆÙŠ",
        "flag": "ğŸ‡³ğŸ‡º",
        "code": "NU",
        "dial_code": "+683"
    },
    {
        "name": "Ø¬Ø²ÙŠØ±Ø© Ù†ÙˆØ±ÙÙˆÙ„Ùƒ",
        "flag": "ğŸ‡³ğŸ‡«",
        "code": "NF",
        "dial_code": "+672"
    },
    {
        "name": "Ø¬Ø²ÙŠØ±Ø© Ù…Ø§Ø±ÙŠØ§Ù†Ø§ Ø§Ù„Ø´Ù…Ø§Ù„ÙŠØ©",
        "flag": "ğŸ‡²ğŸ‡µ",
        "code": "MP",
        "dial_code": "+1670"
    },
    {
        "name": "Ø§Ù„Ù†Ø±ÙˆÙŠØ¬",
        "flag": "ğŸ‡³ğŸ‡´",
        "code": "NO",
        "dial_code": "+47"
    },
    {
        "name": "Ø³Ù„Ø·Ù†Ø© Ø¹Ù…Ø§Ù†",
        "flag": "ğŸ‡´ğŸ‡²",
        "code": "OM",
        "dial_code": "+968"
    },
    {
        "name": "Ø¨Ø§ÙƒØ³ØªØ§Ù†",
        "flag": "ğŸ‡µğŸ‡°",
        "code": "PK",
        "dial_code": "+92"
    },
    {
        "name": "Ø¨Ø§Ù„Ø§Ùˆ",
        "flag": "ğŸ‡µğŸ‡¼",
        "code": "PW",
        "dial_code": "+680"
    },
    {
        "name": "ÙÙ„Ø³Ø·ÙŠÙ†",
        "flag": "ğŸ‡µğŸ‡¸",
        "code": "PS",
        "dial_code": "+970"
    },
    {
        "name": "Ø¨Ù†Ù…Ø§",
        "flag": "ğŸ‡µğŸ‡¦",
        "code": "PA",
        "dial_code": "+507"
    },
    {
        "name": "Ø¨Ø§Ø¨ÙˆØ§ ØºÙŠÙ†ÙŠØ§ Ø§Ù„Ø¬Ø¯ÙŠØ¯Ø©",
        "flag": "ğŸ‡µğŸ‡¬",
        "code": "PG",
        "dial_code": "+675"
    },
    {
        "name": "Ø¨Ø§Ø±Ø§ØºÙˆØ§ÙŠ ",
        "flag": "ğŸ‡µğŸ‡¾",
        "code": "PY",
        "dial_code": "+595"
    },
    {
        "name": "Ø¨ÙŠØ±Ùˆ",
        "flag": "ğŸ‡µğŸ‡ª",
        "code": "PE",
        "dial_code": "+51"
    },
    {
        "name": "Ø§Ù„ÙÙ„Ø¨ÙŠÙ†",
        "flag": "ğŸ‡µğŸ‡­",
        "code": "PH",
        "dial_code": "+63"
    },
    {
        "name": "Ø¨ÙŠØªÙƒÙŠØ±Ù† ",
        "flag": "ğŸ‡µğŸ‡³",
        "code": "PN",
        "dial_code": "+64"
    },
    {
        "name": "Ø¨ÙˆÙ„Ù†Ø¯Ø§",
        "flag": "ğŸ‡µğŸ‡±",
        "code": "PL",
        "dial_code": "+48"
    },
    {
        "name": "Ø§Ù„Ø¨Ø±ØªØºØ§Ù„",
        "flag": "ğŸ‡µğŸ‡¹",
        "code": "PT",
        "dial_code": "+351"
    },
    {
        "name": "Ø¨ÙˆØ±ØªÙˆØ±ÙŠÙƒÙˆ",
        "flag": "ğŸ‡µğŸ‡·",
        "code": "PR",
        "dial_code": "+1939"
    },
    {
        "name": "Ù‚Ø·Ø±",
        "flag": "ğŸ‡¶ğŸ‡¦",
        "code": "QA",
        "dial_code": "+974"
    },
    {
        "name": "Ø±ÙˆÙ…Ø§Ù†ÙŠØ§",
        "flag": "ğŸ‡·ğŸ‡´",
        "code": "RO",
        "dial_code": "+40"
    },
    {
        "name": "Ø±ÙˆØ³ÙŠØ§",
        "flag": "ğŸ‡·ğŸ‡º",
        "code": "RU",
        "dial_code": "+7"
    },
    {
        "name": "Ø±ÙˆØ§Ù†Ø¯Ø§",
        "flag": "ğŸ‡·ğŸ‡¼",
        "code": "RW",
        "dial_code": "+250"
    },
    {
        "name": "Ø³Ø§Ù†Øª Ø¨Ø§Ø±ØªÙŠÙ„ÙŠÙ…ÙŠ",
        "flag": "ğŸ‡§ğŸ‡±",
        "code": "BL",
        "dial_code": "+590"
    },
    {
        "name": "Ø³Ø§Ù†Øª Ù‡ÙŠÙ„Ø§Ù†Ø© ÙˆØ£Ø³Ù†Ø³ÙŠÙˆÙ† ÙˆØªØ±ÙŠØ³ØªØ§Ù† Ø¯Ø§ ÙƒÙˆÙ†Ù‡Ø§",
        "flag": "ğŸ‡¸ğŸ‡­",
        "code": "SH",
        "dial_code": "+290"
    },
    {
        "name": "Ø³Ø§Ù†Øª ÙƒÙŠØªØ³ ÙˆÙ†ÙŠÙÙŠØ³",
        "flag": "ğŸ‡°ğŸ‡³",
        "code": "KN",
        "dial_code": "+1869"
    },
    {
        "name": "Ø³Ø§Ù† Ù…Ø§Ø±ÙŠÙ†Ùˆ",
        "flag": "ğŸ‡¸ğŸ‡²",
        "code": "SM",
        "dial_code": "+378"
    },
    {
        "name": "Ø§Ù„Ù…Ù…Ù„ÙƒØ© Ø§Ù„Ø¹Ø±Ø¨ÙŠØ© Ø§Ù„Ø³Ø¹ÙˆØ¯ÙŠØ©",
        "flag": "ğŸ‡¸ğŸ‡¦",
        "code": "SA",
        "dial_code": "+966"
    },
    {
        "name": "Ø§Ù„Ø³Ù†ØºØ§Ù„",
        "flag": "ğŸ‡¸ğŸ‡³",
        "code": "SN",
        "dial_code": "+221"
    },
    {
        "name": "ØµØ±Ø¨ÙŠØ§",
        "flag": "ğŸ‡·ğŸ‡¸",
        "code": "RS",
        "dial_code": "+381"
    },
    {
        "name": "Ø³ÙŠØ´ÙŠÙ„",
        "flag": "ğŸ‡¸ğŸ‡¨",
        "code": "SC",
        "dial_code": "+248"
    },
    {
        "name": "Ø³Ù†ØºØ§ÙÙˆØ±Ø©",
        "flag": "ğŸ‡¸ğŸ‡¬",
        "code": "SG",
        "dial_code": "+65"
    },
    {
        "name": "Ø³Ù„ÙˆÙØ§ÙƒÙŠØ§",
        "flag": "ğŸ‡¸ğŸ‡°",
        "code": "SK",
        "dial_code": "+421"
    },
    {
        "name": "Ø³Ù„ÙˆÙÙŠÙ†ÙŠØ§",
        "flag": "ğŸ‡¸ğŸ‡®",
        "code": "SI",
        "dial_code": "+386"
    },
    {
        "name": "Ø¬Ø²Ø± Ø³Ù„ÙŠÙ…Ø§Ù†",
        "flag": "ğŸ‡¸ğŸ‡§",
        "code": "SB",
        "dial_code": "+677"
    },
    {
        "name": "Ø§Ù„ØµÙˆÙ…Ø§Ù„",
        "flag": "ğŸ‡¸ğŸ‡´",
        "code": "SO",
        "dial_code": "+252"
    },
    {
        "name": "Ø¬Ù†ÙˆØ¨ Ø£ÙØ±ÙŠÙ‚ÙŠØ§",
        "flag": "ğŸ‡¿ğŸ‡¦",
        "code": "ZA",
        "dial_code": "+27"
    },
    {
        "name": "Ø¬Ù†ÙˆØ¨ Ø§Ù„Ø³ÙˆØ¯Ø§Ù†",
        "flag": "ğŸ‡¸ğŸ‡¸",
        "code": "SS",
        "dial_code": "+211"
    },
    {
        "name": "Ø¬ÙˆØ±Ø¬ÙŠØ§ Ø§Ù„Ø¬Ù†ÙˆØ¨ÙŠØ© ÙˆØ¬Ø²Ø± Ø³Ø§Ù†Ø¯ÙˆÙŠØªØ´ Ø§Ù„Ø¬Ù†ÙˆØ¨ÙŠØ©",
        "flag": "ğŸ‡¬ğŸ‡¸",
        "code": "GS",
        "dial_code": "+500"
    },
    {
        "name": "Ø¥Ø³Ø¨Ø§Ù†ÙŠØ§",
        "flag": "ğŸ‡ªğŸ‡¸",
        "code": "ES",
        "dial_code": "+34"
    },
    {
        "name": "Ø³ÙŠØ±ÙŠÙ„Ø§Ù†ÙƒØ§",
        "flag": "ğŸ‡±ğŸ‡°",
        "code": "LK",
        "dial_code": "+94"
    },
    {
        "name": "Ø§Ù„Ø³ÙˆØ¯Ø§Ù†",
        "flag": "ğŸ‡¸ğŸ‡©",
        "code": "SD",
        "dial_code": "+249"
    },
    {
        "name": "Ø³ÙˆØ§Ø²ÙŠÙ„Ø§Ù†Ø¯",
        "flag": "ğŸ‡¸ğŸ‡¿",
        "code": "SZ",
        "dial_code": "+268"
    },
    {
        "name": "Ø§Ù„Ø³ÙˆÙŠØ¯",
        "flag": "ğŸ‡¸ğŸ‡ª",
        "code": "SE",
        "dial_code": "+46"
    },
    {
        "name": "Ø³ÙˆÙŠØ³Ø±Ø§",
        "flag": "ğŸ‡¨ğŸ‡­",
        "code": "CH",
        "dial_code": "+41"
    },
    {
        "name": "Ø§Ù„Ø¬Ù…Ù‡ÙˆØ±ÙŠØ© Ø§Ù„Ø¹Ø±Ø¨ÙŠØ© Ø§Ù„Ø³ÙˆØ±ÙŠØ©",
        "flag": "ğŸ‡¸ğŸ‡¾",
        "code": "SY",
        "dial_code": "+963"
    },
    {
        "name": "ØªØ§ÙŠÙˆØ§Ù†",
        "flag": "ğŸ‡¹ğŸ‡¼",
        "code": "TW",
        "dial_code": "+886"
    },
    {
        "name": "Ø·Ø§Ø¬ÙŠÙƒØ³ØªØ§Ù†",
        "flag": "ğŸ‡¹ğŸ‡¯",
        "code": "TJ",
        "dial_code": "+992"
    },
    {
        "name": "ØªÙ†Ø²Ø§Ù†ÙŠØ§ ØŒ Ø¬Ù…Ù‡ÙˆØ±ÙŠØ© ØªÙ†Ø²Ø§Ù†ÙŠØ§ Ø§Ù„Ù…ØªØ­Ø¯Ø©",
        "flag": "ğŸ‡¹ğŸ‡¿",
        "code": "TZ",
        "dial_code": "+255"
    },
    {
        "name": "ØªØ§ÙŠÙ„Ø§Ù†Ø¯",
        "flag": "ğŸ‡¹ğŸ‡­",
        "code": "TH",
        "dial_code": "+66"
    },
    {
        "name": "ØªÙŠÙ…ÙˆØ± Ù„ÙŠØ´ØªÙŠ",
        "flag": "ğŸ‡¹ğŸ‡±",
        "code": "TL",
        "dial_code": "+670"
    },
    {
        "name": "ØªÙˆØ¬Ùˆ",
        "flag": "ğŸ‡¹ğŸ‡¬",
        "code": "TG",
        "dial_code": "+228"
    },
    {
        "name": "ØªØ±ÙŠÙ†Ø¯Ø§Ø¯ ÙˆØªÙˆØ¨Ø§ØºÙˆ",
        "flag": "ğŸ‡¹ğŸ‡¹",
        "code": "TT",
        "dial_code": "+1868"
    },
    {
        "name": "ØªÙˆÙ†Ø³",
        "flag": "ğŸ‡¹ğŸ‡³",
        "code": "TN",
        "dial_code": "+216"
    },
    {
        "name": "ØªØ±ÙƒÙŠØ§",
        "flag": "ğŸ‡¹ğŸ‡·",
        "code": "TR",
        "dial_code": "+90"
    },
    {
        "name": "ØªØ±ÙƒÙ…Ø§Ù†Ø³ØªØ§Ù†",
        "flag": "ğŸ‡¹ğŸ‡²",
        "code": "TM",
        "dial_code": "+993"
    },
    {
        "name": "Ø¬Ø²Ø± ØªØ±ÙƒØ³ ÙˆÙƒØ§ÙŠÙƒÙˆØ³",
        "flag": "ğŸ‡¹ğŸ‡¨",
        "code": "TC",
        "dial_code": "+1649"
    },
    {
        "name": "Ø£ÙˆØºÙ†Ø¯Ø§",
        "flag": "ğŸ‡ºğŸ‡¬",
        "code": "UG",
        "dial_code": "+256"
    },
    {
        "name": "Ø£ÙˆÙƒØ±Ø§Ù†ÙŠØ§",
        "flag": "ğŸ‡ºğŸ‡¦",
        "code": "UA",
        "dial_code": "+380"
    },
    {
        "name": "Ø§Ù„Ø¥Ù…Ø§Ø±Ø§Øª Ø§Ù„Ø¹Ø±Ø¨ÙŠØ© Ø§Ù„Ù…ØªØ­Ø¯Ø©",
        "flag": "ğŸ‡¦ğŸ‡ª",
        "code": "AE",
        "dial_code": "+971"
    },
    {
        "name": "Ø§Ù„Ù…Ù…Ù„ÙƒØ© Ø§Ù„Ù…ØªØ­Ø¯Ø©",
        "flag": "ğŸ‡¬ğŸ‡§",
        "code": "GB",
        "dial_code": "+44"
    },
    {
        "name": "Ø§Ù„ÙˆÙ„Ø§ÙŠØ§Øª Ø§Ù„Ù…ØªØ­Ø¯Ø© Ø§Ù„Ø£Ù…Ø±ÙŠÙƒÙŠØ©",
        "flag": "ğŸ‡ºğŸ‡¸",
        "code": "US",
        "dial_code": "+1"
    },
    {
        "name": "Ø£ÙˆØ±ÙˆØºÙˆØ§ÙŠ",
        "flag": "ğŸ‡ºğŸ‡¾",
        "code": "UY",
        "dial_code": "+598"
    },
    {
        "name": "Ø£ÙˆØ²Ø¨ÙƒØ³ØªØ§Ù†",
        "flag": "ğŸ‡ºğŸ‡¿",
        "code": "UZ",
        "dial_code": "+998"
    },
    {
        "name": "ÙÙ†Ø²ÙˆÙŠÙ„Ø§ ØŒ Ø¬Ù…Ù‡ÙˆØ±ÙŠØ© ÙÙ†Ø²ÙˆÙŠÙ„Ø§ Ø§Ù„Ø¨ÙˆÙ„ÙŠÙØ§Ø±ÙŠØ©",
        "flag": "ğŸ‡»ğŸ‡ª",
        "code": "VE",
        "dial_code": "+58"
    },
    {
        "name": "ÙÙŠØªÙ†Ø§Ù…",
        "flag": "ğŸ‡»ğŸ‡³",
        "code": "VN",
        "dial_code": "+84"
    },
    {
        "name": "Ø§Ù„ÙŠÙ…Ù†",
        "flag": "ğŸ‡¾ğŸ‡ª",
        "code": "YE",
        "dial_code": "+967"
    },
    {
        "name": "Ø²Ø§Ù…Ø¨ÙŠØ§",
        "flag": "ğŸ‡¿ğŸ‡²",
        "code": "ZM",
        "dial_code": "+260"
    },
    {
        "name": "Ø²Ù…Ø¨Ø§Ø¨ÙˆÙŠ",
        "flag": "ğŸ‡¿ğŸ‡¼",
        "code": "ZW",
        "dial_code": "+263"
    }
]